[{"OBJECT_NAME":"STARLINK-6315","OBJECT_ID":"2023-094U","EPOCH":"2026-03-05T07:15:26.299008","MEAN_MOTION":15.02537327,"ECCENTRICITY":0.0001289,"INCLINATION":43.0056,"RA_OF_ASC_NODE":41.7139,"ARG_OF_PERICENTER":267.4701,"MEAN_ANOMALY":92.5994,"EPHEMERIS_TYPE":0,"CLASSIFICATION_TYPE":"U","NORAD_CAT_ID":57236,"ELEMENT_SET_NO":999,"REV_AT_EPOCH":14660,"BSTAR":3.4284694e-5,"MEAN_MOTION_DOT":2.6e-6,"MEAN_MOTION_DDOT":0},{"OBJECT_NAME":"STARLINK-6365","OBJECT_ID":"2023-094V","EPOCH":"2026-03-05T06:00:02.999808","MEAN_MOTION":15.08229727,"ECCENTRICITY":0.00015763,"INCLINATION":43.0002,"RA_OF_ASC_NODE":54.0261,"ARG_OF_PERICENTER":290.4697,"MEAN_ANOMALY":189.5127,"EPHEMERIS_TYPE":0,"CLASSIFICATION_TYPE":"U","NORAD_CAT_ID":57237,"ELEMENT_SET_NO":999,"REV_AT_EPOCH":573,"BSTAR":0.0018587732,"MEAN_MOTION_DOT":0.00029174,"MEAN_MOTION_DDOT":0},{"OBJECT_NAME":"STARLINK-6334","OBJECT_ID":"2023-094W","EPOCH":"2026-03-05T07:04:14.935584","MEAN_MOTION":15.02539634,"ECCENTRICITY":0.00015747,"INCLINATION":43.0048,"RA_OF_ASC_NODE":41.6519,"ARG_OF_PERICENTER":284.7584,"MEAN_ANOMALY":75.3084,"EPHEMERIS_TYPE":0,"CLASSIFICATION_TYPE":"U","NORAD_CAT_ID":57238,"ELEMENT_SET_NO":999,"REV_AT_EPOCH":14660,"BSTAR":8.0790277e-5,"MEAN_MOTION_DOT":8.88e-6,"MEAN_MOTION_DDOT":0},{"OBJECT_NAME":"STARLINK-6330","OBJECT_ID":"2023-094X","EPOCH":"2026-03-05T06:00:02.999808","MEAN_MOTION":15.09169172,"ECCENTRICITY":5.172e-5,"INCLINATION":43.0012,"RA_OF_ASC_NODE":53.8976,"ARG_OF_PERICENTER":318.8337,"MEAN_ANOMALY":218.8224,"EPHEMERIS_TYPE":0,"CLASSIFICATION_TYPE":"U","NORAD_CAT_ID":57239,"ELEMENT_SET_NO":999,"REV_AT_EPOCH":578,"BSTAR":0.0042290217,"MEAN_MOTION_DOT":0.00068774,"MEAN_MOTION_DDOT":0},{"OBJECT_NAME":"STARLINK-6351","OBJECT_ID":"2023-094Y","EPOCH":"2026-03-05T06:51:11.397312","MEAN_MOTION":15.02743082,"ECCENTRICITY":0.00015682,"INCLINATION":43.0006,"RA_OF_ASC_NODE":41.5725,"ARG_OF_PERICENTER":254.1888,"MEAN_ANOMALY":105.8781,"EPHEMERIS_TYPE":0,"CLASSIFICATION_TYPE":"U","NORAD_CAT_ID":57240,"ELEMENT_SET_NO":999,"REV_AT_EPOCH":14660,"BSTAR":0.0020232002,"MEAN_MOTION_DOT":0.00027384,"MEAN_MOTION_DDOT":0},{"OBJECT_NAME":"STARLINK-6349","OBJECT_ID":"2023-094Z","EPOCH":"2026-03-05T07:10:38.874720","MEAN_MOTION":15.02546308,"ECCENTRICITY":5.133e-5,"INCLINATION":43.0046,"RA_OF_ASC_NODE":41.6808,"ARG_OF_PERICENTER":322.813,"MEAN_ANOMALY":37.2677,"EPHEMERIS_TYPE":0,"CLASSIFICATION_TYPE":"U","NORAD_CAT_ID":57241,"ELEMENT_SET_NO":999,"REV_AT_EPOCH":14660,"BSTAR":0.00018782886,"MEAN_MOTION_DOT":2.335e-5,"MEAN_MOTION_DDOT":0},{"OBJECT_NAME":"STARLINK-6306","OBJECT_ID":"2023-094AA","EPOCH":"2026-03-05T07:05:51.332064","MEAN_MOTION":15.02536318,"ECCENTRICITY":7.948e-5,"INCLINATION":43.0042,"RA_OF_ASC_NODE":41.6585,"ARG_OF_PERICENTER":243.2901,"MEAN_ANOMALY":116.786,"EPHEMERIS_TYPE":0,"CLASSIFICATION_TYPE":"U","NORAD_CAT_ID":57242,"ELEMENT_SET_NO":999,"REV_AT_EPOCH":14660,"BSTAR":3.4754979e-5,"MEAN_MOTION_DOT":2.66e-6,"MEAN_MOTION_DDOT":0},{"OBJECT_NAME":"STARLINK-6346","OBJECT_ID":"2023-094AB","EPOCH":"2026-03-04T08:48:51.010848","MEAN_MOTION":15.02534388,"ECCENTRICITY":0.00014146,"INCLINATION":43.0051,"RA_OF_ASC_NODE":46.7362,"ARG_OF_PERICENTER":288.2804,"MEAN_ANOMALY":71.7885,"EPHEMERIS_TYPE":0,"CLASSIFICATION_TYPE":"U","NORAD_CAT_ID":57243,"ELEMENT_SET_NO":999,"REV_AT_EPOCH":14646,"BSTAR":0.00012475705,"MEAN_MOTION_DOT":1.482e-5,"MEAN_MOTION_DDOT":0},{"OBJECT_NAME":"STARLINK-5610","OBJECT_ID":"2023-094AC","EPOCH":"2026-03-05T00:31:42.524544","MEAN_MOTION":15.0255667,"ECCENTRICITY":0.00012897,"INCLINATION":43.0039,"RA_OF_ASC_NODE":43.0414,"ARG_OF_PERICENTER":254.5227,"MEAN_ANOMALY":105.5473,"EPHEMERIS_TYPE":0,"CLASSIFICATION_TYPE":"U","NORAD_CAT_ID":57244,"ELEMENT_SET_NO":999,"REV_AT_EPOCH":14656,"BSTAR":0.00031296338,"MEAN_MOTION_DOT":4.029e-5,"MEAN_MOTION_DDOT":0},{"OBJECT_NAME":"STARLINK-5587","OBJECT_ID":"2023-094AD","EPOCH":"2026-03-05T06:59:27.722112","MEAN_MOTION":15.02532664,"ECCENTRICITY":0.00010515,"INCLINATION":43.0036,"RA_OF_ASC_NODE":41.624,"ARG_OF_PERICENTER":244.2948,"MEAN_ANOMALY":115.7786,"EPHEMERIS_TYPE":0,"CLASSIFICATION_TYPE":"U","NORAD_CAT_ID":57245,"ELEMENT_SET_NO":999,"REV_AT_EPOCH":14660,"BSTAR":3.1263029e-5,"MEAN_MOTION_DOT":2.19e-6,"MEAN_MOTION_DDOT":0},{"OBJECT_NAME":"STARLINK-5049","OBJECT_ID":"2023-094AE","EPOCH":"2026-03-05T04:42:10.327968","MEAN_MOTION":15.02526718,"ECCENTRICITY":0.00011073,"INCLINATION":43.0035,"RA_OF_ASC_NODE":41.7656,"ARG_OF_PERICENTER":264.8104,"MEAN_ANOMALY":95.2612,"EPHEMERIS_TYPE":0,"CLASSIFICATION_TYPE":"U","NORAD_CAT_ID":57246,"ELEMENT_SET_NO":999,"REV_AT_EPOCH":14659,"BSTAR":-0.00015504909,"MEAN_MOTION_DOT":-2.297e-5,"MEAN_MOTION_DDOT":0},{"OBJECT_NAME":"STARLINK-5039","OBJECT_ID":"2023-094AF","EPOCH":"2026-03-05T00:26:57.915168","MEAN_MOTION":15.02545121,"ECCENTRICITY":0.00014372,"INCLINATION":43.0054,"RA_OF_ASC_NODE":43.0215,"ARG_OF_PERICENTER":278.5465,"MEAN_ANOMALY":81.5214,"EPHEMERIS_TYPE":0,"CLASSIFICATION_TYPE":"U","NORAD_CAT_ID":57247,"ELEMENT_SET_NO":999,"REV_AT_EPOCH":14656,"BSTAR":0.00015113412,"MEAN_MOTION_DOT":1.839e-5,"MEAN_MOTION_DDOT":0},{"OBJECT_NAME":"STARLINK-5514","OBJECT_ID":"2023-094AG","EPOCH":"2026-03-05T06:45:03.328992","MEAN_MOTION":15.02541681,"ECCENTRICITY":0.00013529,"INCLINATION":43.0048,"RA_OF_ASC_NODE":41.5453,"ARG_OF_PERICENTER":265.8162,"MEAN_ANOMALY":94.2526,"EPHEMERIS_TYPE":0,"CLASSIFICATION_TYPE":"U","NORAD_CAT_ID":57248,"ELEMENT_SET_NO":999,"REV_AT_EPOCH":14660,"BSTAR":8.3875012e-5,"MEAN_MOTION_DOT":9.3e-6,"MEAN_MOTION_DDOT":0},{"OBJECT_NAME":"STARLINK-5517","OBJECT_ID":"2023-094AH","EPOCH":"2026-03-05T06:41:51.746496","MEAN_MOTION":15.02534622,"ECCENTRICITY":0.00017268,"INCLINATION":43.0036,"RA_OF_ASC_NODE":41.4701,"ARG_OF_PERICENTER":276.497,"MEAN_ANOMALY":83.5675,"EPHEMERIS_TYPE":0,"CLASSIFICATION_TYPE":"U","NORAD_CAT_ID":57249,"ELEMENT_SET_NO":999,"REV_AT_EPOCH":14660,"BSTAR":-6.5245817e-5,"MEAN_MOTION_DOT":-1.085e-5,"MEAN_MOTION_DDOT":0},{"OBJECT_NAME":"STARLINK-5488","OBJECT_ID":"2023-094AJ","EPOCH":"2026-03-05T06:27:29.649024","MEAN_MOTION":15.02533413,"ECCENTRICITY":0.00015217,"INCLINATION":43.0042,"RA_OF_ASC_NODE":41.4583,"ARG_OF_PERICENTER":274.2745,"MEAN_ANOMALY":85.7924,"EPHEMERIS_TYPE":0,"CLASSIFICATION_TYPE":"U","NORAD_CAT_ID":57250,"ELEMENT_SET_NO":999,"REV_AT_EPOCH":14660,"BSTAR":1.552463e-6,"MEAN_MOTION_DOT":-1.83e-6,"MEAN_MOTION_DDOT":0},{"OBJECT_NAME":"STARLINK-5513","OBJECT_ID":"2023-094AK","EPOCH":"2026-03-05T06:37:05.658816","MEAN_MOTION":15.02528113,"ECCENTRICITY":0.00011508,"INCLINATION":43.0038,"RA_OF_ASC_NODE":41.5062,"ARG_OF_PERICENTER":265.3931,"MEAN_ANOMALY":94.678,"EPHEMERIS_TYPE":0,"CLASSIFICATION_TYPE":"U","NORAD_CAT_ID":57251,"ELEMENT_SET_NO":999,"REV_AT_EPOCH":14660,"BSTAR":-0.00025251351,"MEAN_MOTION_DOT":-3.612e-5,"MEAN_MOTION_DDOT":0}]
