STARLINK-6315           
1 57236U 23094U   26064.30238772  .00000260  00000+0  34285-4 0  9994
2 57236  43.0056  41.7139 0001289 267.4701  92.5994 15.02537327146605
STARLINK-6365           
1 57237U 23094V   26064.25003472  .00029174  00000+0  18588-2 0  9997
2 57237  43.0002  54.0261 0001576 290.4697 189.5127 15.08229727  5730
STARLINK-6334           
1 57238U 23094W   26064.29461731  .00000888  00000+0  80790-4 0  9995
2 57238  43.0048  41.6519 0001574 284.7584  75.3084 15.02539634146609
STARLINK-6330           
1 57239U 23094X   26064.25003472  .00068774  00000+0  42290-2 0  9995
2 57239  43.0012  53.8976 0000517 318.8337 218.8224 15.09169172  5780
STARLINK-6351           
1 57240U 23094Y   26064.28554858  .00027384  00000+0  20232-2 0  9993
2 57240  43.0006  41.5725 0001568 254.1888 105.8781 15.02743082146602
STARLINK-6349           
1 57241U 23094Z   26064.29906105  .00002335  00000+0  18783-3 0  9999
2 57241  43.0046  41.6808 0000513 322.8130  37.2677 15.02546308146606
STARLINK-6306           
1 57242U 23094AA  26064.29573301  .00000266  00000+0  34755-4 0  9997
2 57242  43.0042  41.6585 0000794 243.2901 116.7860 15.02536318146605
STARLINK-6346           
1 57243U 23094AB  26063.36725707  .00001482  00000+0  12476-3 0  9990
2 57243  43.0051  46.7362 0001414 288.2804  71.7885 15.02534388146462
STARLINK-5610           
1 57244U 23094AC  26064.02201996  .00004029  00000+0  31296-3 0  9995
2 57244  43.0039  43.0414 0001289 254.5227 105.5473 15.02556670146560
STARLINK-5587           
1 57245U 23094AD  26064.29129308  .00000219  00000+0  31263-4 0  9993
2 57245  43.0036  41.6240 0001051 244.2948 115.7786 15.02532664146604
STARLINK-5049           
1 57246U 23094AE  26064.19595287 -.00002297  00000+0 -15505-3 0  9996
2 57246  43.0035  41.7656 0001107 264.8104  95.2612 15.02526718146591
STARLINK-5039           
1 57247U 23094AF  26064.01872587  .00001839  00000+0  15113-3 0  9993
2 57247  43.0054  43.0215 0001437 278.5465  81.5214 15.02545121146569
STARLINK-5514           
1 57248U 23094AG  26064.28128853  .00000930  00000+0  83875-4 0  9995
2 57248  43.0048  41.5453 0001352 265.8162  94.2526 15.02541681146608
STARLINK-5517           
1 57249U 23094AH  26064.27907114 -.00001085  00000+0 -65246-4 0  9996
2 57249  43.0036  41.4701 0001726 276.4970  83.5675 15.02534622146604
STARLINK-5488           
1 57250U 23094AJ  26064.26909316 -.00000183  00000+0  15525-5 0  9996
2 57250  43.0042  41.4583 0001521 274.2745  85.7924 15.02533413146608
STARLINK-5513           
1 57251U 23094AK  26064.27575994 -.00003612  00000+0 -25251-3 0  9995
2 57251  43.0038  41.5062 0001150 265.3931  94.6780 15.02528113146603
